start=new Date('2023-04-30T00:00:00.000Z').valueOf();
sats=[{"COUNTRY_CODE":"US","ELEMENT_SET_NO":"999","DECAY_DATE":null,"EPOCH":"2023-04-29T00:47:31.654464","MEAN_ELEMENT_THEORY":"SGP4","TLE_LINE2":"2 47604  53.0550  25.7533 0001235 100.5630 259.5498 15.06456602123331","TIME_SYSTEM":"UTC","APOAPSIS":"547.895","OBJECT_NAME":"STARLINK-2021","LAUNCH_DATE":"2021-02-04","CENTER_NAME":"EARTH","PERIAPSIS":"546.185","SITE":"AFETR","PERIOD":"95.589","ECCENTRICITY":"0.00012350","NORAD_CAT_ID":"47604","INCLINATION":"53.0550","MEAN_MOTION_DDOT":"0.0000000000000","REV_AT_EPOCH":"12333","MEAN_MOTION":"15.06456602","RA_OF_ASC_NODE":"25.7533","MEAN_ANOMALY":"259.5498","CLASSIFICATION_TYPE":"U","GP_ID":"230927177","SEMIMAJOR_AXIS":"6925.175","OBJECT_TYPE":"PAYLOAD","FILE":"3896517","REF_FRAME":"TEME","MEAN_MOTION_DOT":"0.00025303","TLE_LINE1":"1 47604U 21009BJ  23119.03300526  .00025303  00000-0  17089-2 0  9998","RCS_SIZE":"LARGE","BSTAR":"0.00170890000000","OBJECT_ID":"2021-009BJ","EPHEMERIS_TYPE":"0","ARG_OF_PERICENTER":"100.5630"},{"TIME_SYSTEM":"UTC","TLE_LINE2":"2 47606  53.0555  22.4607 0000851   5.4821 354.6177 15.06377339124041","OBJECT_NAME":"STARLINK-2024","APOAPSIS":"547.872","MEAN_ELEMENT_THEORY":"SGP4","CENTER_NAME":"EARTH","LAUNCH_DATE":"2021-02-04","PERIAPSIS":"546.694","PERIOD":"95.594","ECCENTRICITY":"0.00008510","SITE":"AFETR","COUNTRY_CODE":"US","ELEMENT_SET_NO":"999","DECAY_DATE":null,"EPOCH":"2023-04-29T18:23:45.428064","TLE_LINE1":"1 47606U 21009BL  23119.76649801  .00003923  00000-0  28228-3 0  9994","RCS_SIZE":"LARGE","BSTAR":"0.00028228000000","OBJECT_ID":"2021-009BL","EPHEMERIS_TYPE":"0","ARG_OF_PERICENTER":"5.4821","NORAD_CAT_ID":"47606","INCLINATION":"53.0555","MEAN_MOTION":"15.06377339","RA_OF_ASC_NODE":"22.4607","MEAN_MOTION_DDOT":"0.0000000000000","REV_AT_EPOCH":"12404","MEAN_ANOMALY":"354.6177","CLASSIFICATION_TYPE":"U","OBJECT_TYPE":"PAYLOAD","FILE":"3896690","REF_FRAME":"TEME","MEAN_MOTION_DOT":"0.00003923","GP_ID":"230936962","SEMIMAJOR_AXIS":"6925.418"},{"TLE_LINE1":"1 47607U 21009BM  23119.73761255  .00028995  00000-0  18985-2 0  9994","RCS_SIZE":"LARGE","BSTAR":"0.00189850000000","OBJECT_ID":"2021-009BM","EPHEMERIS_TYPE":"0","ARG_OF_PERICENTER":"147.5022","NORAD_CAT_ID":"47607","INCLINATION":"53.0562","MEAN_MOTION":"15.07532854","RA_OF_ASC_NODE":"22.5392","MEAN_MOTION_DDOT":"0.0000000000000","REV_AT_EPOCH":"12403","MEAN_ANOMALY":"212.6048","CLASSIFICATION_TYPE":"U","FILE":"3896690","OBJECT_TYPE":"PAYLOAD","REF_FRAME":"TEME","MEAN_MOTION_DOT":"0.00028995","GP_ID":"230936964","SEMIMAJOR_AXIS":"6921.879","TLE_LINE2":"2 47607  53.0562  22.5392 0001302 147.5022 212.6048 15.07532854124030","TIME_SYSTEM":"UTC","APOAPSIS":"544.645","OBJECT_NAME":"STARLINK-2025","MEAN_ELEMENT_THEORY":"SGP4","CENTER_NAME":"EARTH","LAUNCH_DATE":"2021-02-04","PERIAPSIS":"542.842","PERIOD":"95.520","ECCENTRICITY":"0.00013020","SITE":"AFETR","COUNTRY_CODE":"US","ELEMENT_SET_NO":"999","DECAY_DATE":null,"EPOCH":"2023-04-29T17:42:09.724320"},{"ELEMENT_SET_NO":"999","COUNTRY_CODE":"US","EPOCH":"2023-04-29T03:55:56.647776","DECAY_DATE":null,"CENTER_NAME":"EARTH","LAUNCH_DATE":"2021-02-16","TLE_LINE2":"2 47620  53.0527  85.1638 0001504  89.0361 271.0801 15.06443635122394","TIME_SYSTEM":"UTC","OBJECT_NAME":"STARLINK-1528","APOAPSIS":"548.121","MEAN_ELEMENT_THEORY":"SGP4","PERIOD":"95.589","ECCENTRICITY":"0.00015040","SITE":"AFETR","PERIAPSIS":"546.038","MEAN_MOTION":"15.06443635","RA_OF_ASC_NODE":"85.1638","MEAN_MOTION_DDOT":"0.0000000000000","REV_AT_EPOCH":"12239","NORAD_CAT_ID":"47620","INCLINATION":"53.0527","FILE":"3896517","OBJECT_TYPE":"PAYLOAD","REF_FRAME":"TEME","MEAN_MOTION_DOT":"0.00015916","GP_ID":"230927178","SEMIMAJOR_AXIS":"6925.215","MEAN_ANOMALY":"271.0801","CLASSIFICATION_TYPE":"U","RCS_SIZE":"LARGE","BSTAR":"0.00108370000000","TLE_LINE1":"1 47620U 21012A   23119.16385009  .00015916  00000-0  10837-2 0  9996","ARG_OF_PERICENTER":"89.0361","OBJECT_ID":"2021-012A","EPHEMERIS_TYPE":"0"},{"MEAN_ANOMALY":"270.8024","CLASSIFICATION_TYPE":"U","FILE":"3896568","OBJECT_TYPE":"PAYLOAD","REF_FRAME":"TEME","MEAN_MOTION_DOT":"0.00016735","GP_ID":"230934339","SEMIMAJOR_AXIS":"6925.178","NORAD_CAT_ID":"47621","INCLINATION":"53.0541","MEAN_MOTION":"15.06455525","RA_OF_ASC_NODE":"84.0091","MEAN_MOTION_DDOT":"0.0000000000000","REV_AT_EPOCH":"12192","OBJECT_ID":"2021-012B","EPHEMERIS_TYPE":"0","ARG_OF_PERICENTER":"89.3152","TLE_LINE1":"1 47621U 21012B   23119.42185704  .00016735  00000-0  11380-2 0  9990","RCS_SIZE":"LARGE","BSTAR":"0.00113800000000","DECAY_DATE":null,"EPOCH":"2023-04-29T10:07:28.448256","COUNTRY_CODE":"US","ELEMENT_SET_NO":"999","PERIAPSIS":"545.911","PERIOD":"95.589","ECCENTRICITY":"0.00016350","SITE":"AFETR","TIME_SYSTEM":"UTC","TLE_LINE2":"2 47621  53.0541  84.0091 0001635  89.3152 270.8024 15.06455525121921","APOAPSIS":"548.176","OBJECT_NAME":"STARLINK-1609","MEAN_ELEMENT_THEORY":"SGP4","CENTER_NAME":"EARTH","LAUNCH_DATE":"2021-02-16"},{"DECAY_DATE":null,"EPOCH":"2023-04-29T10:00:48.190752","COUNTRY_CODE":"US","ELEMENT_SET_NO":"999","PERIAPSIS":"546.007","ECCENTRICITY":"0.00015140","PERIOD":"95.589","SITE":"AFETR","APOAPSIS":"548.104","OBJECT_NAME":"STARLINK-1645","TIME_SYSTEM":"UTC","TLE_LINE2":"2 47622  53.0521  84.0162 0001514  88.9216 271.1946 15.06451539122436","MEAN_ELEMENT_THEORY":"SGP4","CENTER_NAME":"EARTH","LAUNCH_DATE":"2021-02-16","CLASSIFICATION_TYPE":"U","MEAN_ANOMALY":"271.1946","REF_FRAME":"TEME","MEAN_MOTION_DOT":"0.00017634","FILE":"3896517","OBJECT_TYPE":"PAYLOAD","SEMIMAJOR_AXIS":"6925.191","GP_ID":"230928680","INCLINATION":"53.0521","NORAD_CAT_ID":"47622","MEAN_MOTION":"15.06451539","RA_OF_ASC_NODE":"84.0162","REV_AT_EPOCH":"12243","MEAN_MOTION_DDOT":"0.0000000000000","OBJECT_ID":"2021-012C","EPHEMERIS_TYPE":"0","ARG_OF_PERICENTER":"88.9216","TLE_LINE1":"1 47622U 21012C   23119.41722443  .00017634  00000-0  11981-2 0  9993","BSTAR":"0.00119810000000","RCS_SIZE":"LARGE"},{"ELEMENT_SET_NO":"999","COUNTRY_CODE":"US","EPOCH":"2023-04-29T02:21:03.972096","DECAY_DATE":null,"CENTER_NAME":"EARTH","LAUNCH_DATE":"2021-02-16","TLE_LINE2":"2 47623  53.0549  20.4599 0001095 110.3538 249.7569 15.06408810123309","TIME_SYSTEM":"UTC","OBJECT_NAME":"STARLINK-1655","APOAPSIS":"547.945","MEAN_ELEMENT_THEORY":"SGP4","PERIOD":"95.592","ECCENTRICITY":"0.00010950","SITE":"AFETR","PERIAPSIS":"546.428","MEAN_MOTION":"15.06408810","RA_OF_ASC_NODE":"20.4599","MEAN_MOTION_DDOT":"0.0000000000000","REV_AT_EPOCH":"12330","NORAD_CAT_ID":"47623","INCLINATION":"53.0549","OBJECT_TYPE":"PAYLOAD","FILE":"3896517","REF_FRAME":"TEME","MEAN_MOTION_DOT":"0.00025659","GP_ID":"230927660","SEMIMAJOR_AXIS":"6925.322","MEAN_ANOMALY":"249.7569","CLASSIFICATION_TYPE":"U","RCS_SIZE":"LARGE","BSTAR":"0.00173480000000","TLE_LINE1":"1 47623U 21012D   23119.09796264  .00025659  00000-0  17348-2 0  9999","ARG_OF_PERICENTER":"110.3538","OBJECT_ID":"2021-012D","EPHEMERIS_TYPE":"0"},{"CENTER_NAME":"EARTH","LAUNCH_DATE":"2021-02-16","TLE_LINE2":"2 47624  53.0537  64.5934 0001230 106.6952 253.4172 15.06442370122713","TIME_SYSTEM":"UTC","OBJECT_NAME":"STARLINK-1669","APOAPSIS":"547.936","MEAN_ELEMENT_THEORY":"SGP4","PERIOD":"95.589","ECCENTRICITY":"0.00012300","SITE":"AFETR","PERIAPSIS":"546.232","ELEMENT_SET_NO":"999","COUNTRY_CODE":"US","EPOCH":"2023-04-29T06:59:03.994080","DECAY_DATE":null,"RCS_SIZE":"LARGE","BSTAR":"0.00124260000000","TLE_LINE1":"1 47624U 21012E   23119.29101845  .00018297  00000-0  12426-2 0  9999","ARG_OF_PERICENTER":"106.6952","EPHEMERIS_TYPE":"0","OBJECT_ID":"2021-012E","RA_OF_ASC_NODE":"64.5934","MEAN_MOTION":"15.06442370","MEAN_MOTION_DDOT":"0.0000000000000","REV_AT_EPOCH":"12271","NORAD_CAT_ID":"47624","INCLINATION":"53.0537","OBJECT_TYPE":"PAYLOAD","FILE":"3896517","REF_FRAME":"TEME","MEAN_MOTION_DOT":"0.00018297","GP_ID":"230927679","SEMIMAJOR_AXIS":"6925.219","MEAN_ANOMALY":"253.4172","CLASSIFICATION_TYPE":"U"},{"TLE_LINE1":"1 47625U 21012F   23119.29191727  .00016343  00000-0  11122-2 0  9990","BSTAR":"0.00111220000000","RCS_SIZE":"LARGE","OBJECT_ID":"2021-012F","EPHEMERIS_TYPE":"0","ARG_OF_PERICENTER":"90.0071","INCLINATION":"53.0546","NORAD_CAT_ID":"47625","REV_AT_EPOCH":"12190","MEAN_MOTION_DDOT":"0.0000000000000","RA_OF_ASC_NODE":"84.5828","MEAN_MOTION":"15.06443167","CLASSIFICATION_TYPE":"U","MEAN_ANOMALY":"270.1076","SEMIMAJOR_AXIS":"6925.216","GP_ID":"230934381","MEAN_MOTION_DOT":"0.00016343","REF_FRAME":"TEME","OBJECT_TYPE":"PAYLOAD","FILE":"3896575","MEAN_ELEMENT_THEORY":"SGP4","APOAPSIS":"548.031","OBJECT_NAME":"STARLINK-1704","TLE_LINE2":"2 47625  53.0546  84.5828 0001372  90.0071 270.1076 15.06443167121907","TIME_SYSTEM":"UTC","LAUNCH_DATE":"2021-02-16","CENTER_NAME":"EARTH","PERIAPSIS":"546.131","SITE":"AFETR","ECCENTRICITY":"0.00013720","PERIOD":"95.589","COUNTRY_CODE":"US","ELEMENT_SET_NO":"999","DECAY_DATE":null,"EPOCH":"2023-04-29T07:00:21.652128"},{"CLASSIFICATION_TYPE":"U","MEAN_ANOMALY":"259.9324","REF_FRAME":"TEME","MEAN_MOTION_DOT":"-0.00005651","FILE":"3896675","OBJECT_TYPE":"PAYLOAD","SEMIMAJOR_AXIS":"6925.346","GP_ID":"230937241","INCLINATION":"53.0524","NORAD_CAT_ID":"47626","RA_OF_ASC_NODE":"81.9697","MEAN_MOTION":"15.06400691","REV_AT_EPOCH":"12199","MEAN_MOTION_DDOT":"0.0000000000000","OBJECT_ID":"2021-012G","EPHEMERIS_TYPE":"0","ARG_OF_PERICENTER":"100.1840","TLE_LINE1":"1 47626U 21012G   23119.87522895 -.00005651  00000-0 -36077-3 0  9998","BSTAR":"-0.00036077000000","RCS_SIZE":"LARGE","DECAY_DATE":null,"EPOCH":"2023-04-29T21:00:19.781280","COUNTRY_CODE":"US","ELEMENT_SET_NO":"999","PERIAPSIS":"546.132","ECCENTRICITY":"0.00015590","PERIOD":"95.592","SITE":"AFETR","OBJECT_NAME":"STARLINK-1761","APOAPSIS":"548.291","TIME_SYSTEM":"UTC","TLE_LINE2":"2 47626  53.0524  81.9697 0001559 100.1840 259.9324 15.06400691121998","MEAN_ELEMENT_THEORY":"SGP4","CENTER_NAME":"EARTH","LAUNCH_DATE":"2021-02-16"}];
